[{"OBJECT_NAME":"ONEWEB-0307","OBJECT_ID":"2021-083D","EPOCH":"2026-03-09T23:26:01.832640","MEAN_MOTION":13.13469289,"ECCENTRICITY":0.00017362,"INCLINATION":87.9027,"RA_OF_ASC_NODE":339.9741,"ARG_OF_PERICENTER":77.623,"MEAN_ANOMALY":282.5093,"EPHEMERIS_TYPE":0,"CLASSIFICATION_TYPE":"U","NORAD_CAT_ID":49189,"ELEMENT_SET_NO":999,"REV_AT_EPOCH":21790,"BSTAR":0.00089492219,"MEAN_MOTION_DOT":3.4e-6,"MEAN_MOTION_DDOT":0},{"OBJECT_NAME":"CZ-4C DEB","OBJECT_ID":"2015-040D","EPOCH":"2026-03-08T09:58:09.156864","MEAN_MOTION":13.22572388,"ECCENTRICITY":0.01417404,"INCLINATION":100.1866,"RA_OF_ASC_NODE":142.2067,"ARG_OF_PERICENTER":40.5742,"MEAN_ANOMALY":320.5838,"EPHEMERIS_TYPE":0,"CLASSIFICATION_TYPE":"U","NORAD_CAT_ID":43425,"ELEMENT_SET_NO":999,"REV_AT_EPOCH":50722,"BSTAR":0.00033161309,"MEAN_MOTION_DOT":1.03e-6,"MEAN_MOTION_DDOT":0}]
